     2.11           N: GPS NAV DATA                         RINEX VERSION / TYPE
teqc  2019Feb25                         20221121 12:27:30UTCPGM / RUN BY / DATE
OSX ker:10.11.6|Core i5|gcc 4.3 -m64|OSX ker:10.10+|=+      COMMENT
    8.3819D-09  1.4901D-08 -5.9605D-08 -5.9605D-08          ION ALPHA
    8.3968D+04  1.6384D+04 -1.3107D+05 -6.5536D+04          ION BETA
    9.313225746155D-10 2.664535259100D-15   233472     1550 DELTA-UTC: A0,A1,T,W
                                                            END OF HEADER
 2 09  9 21  2  0  0.0 1.740921288729D-04 3.069544618484D-12 0.000000000000D+00
    8.200000000000D+01 9.300000000000D+01 4.927705258703D-09-8.877954054765D-01
    4.803761839867D-06 9.086812031455D-03 1.054629683495D-05 5.153715442657D+03
    9.360000000000D+04 2.793967723846D-08-2.540028882444D+00-1.415610313416D-07
    9.410913616955D-01 1.672812500000D+02 2.895500327062D+00-8.215699359713D-09
    2.771544017362D-10 1.000000000000D+00 1.550000000000D+03 0.000000000000D+00
    2.000000000000D+00 0.000000000000D+00-1.722946763039D-08 8.200000000000D+01
    8.641800000000D+04 4.000000000000D+00
31 09  9 21  2  0  0.0-6.410339847207D-05 5.684341886081D-13 0.000000000000D+00
    5.000000000000D+01-1.171875000000D+01 3.835516907532D-09-2.765612395109D+00
   -5.438923835754D-07 7.051687338389D-03 1.222640275955D-05 5.153795541763D+03
    9.360000000000D+04 1.005828380585D-07 6.150473568826D-01 4.284083843231D-08
    9.742928024517D-01 1.526562500000D+02-1.140648071016D+00-7.521384724435D-09
    3.468001599044D-10 1.000000000000D+00 1.550000000000D+03 0.000000000000D+00
    2.000000000000D+00 0.000000000000D+00-1.303851604462D-08 5.000000000000D+01
    8.641800000000D+04 4.000000000000D+00
13 09  9 21  2  0  0.0 3.048619255424D-04 4.547473508865D-13 0.000000000000D+00
    6.000000000000D+01-1.022812500000D+02 3.733012637817D-09-2.842506794046D-01
   -5.379319190979D-06 4.007462644950D-03 7.893890142441D-06 5.153652774811D+03
    9.360000000000D+04-5.960464477539D-08-3.697405061819D-01-1.862645149231D-09
    9.946129159745D-01 2.448437500000D+02 1.660245877825D+00-7.822825852097D-09
   -4.528760069606D-10 1.000000000000D+00 1.550000000000D+03 0.000000000000D+00
    2.000000000000D+00 0.000000000000D+00-1.117587089539D-08 6.000000000000D+01
    8.641800000000D+04 4.000000000000D+00
30 09  9 21  2  0  0.0 1.786025241017D-04 3.069544618484D-12 0.000000000000D+00
    3.200000000000D+01 1.840625000000D+01 5.107712756738D-09 1.222536080838D+00
    7.580965757370D-07 1.192167575937D-02 4.753470420837D-06 5.153659492493D+03
    9.360000000000D+04-1.508742570877D-07 1.619887127921D+00-1.695007085800D-07
    9.528481379496D-01 2.841875000000D+02 1.455743168289D+00-8.576071513516D-09
    2.950122884460D-10 1.000000000000D+00 1.550000000000D+03 0.000000000000D+00
    2.000000000000D+00 0.000000000000D+00-7.916241884232D-09 3.200000000000D+01
    8.641800000000D+04 4.000000000000D+00
29 09  9 21  2  0  0.0 5.929311737418D-05 3.296918293927D-12 0.000000000000D+00
    5.100000000000D+01-4.115625000000D+01 4.551261006861D-09 2.781254122946D+00
   -2.400949597359D-06 3.080390277319D-03 9.642913937569D-06 5.153607524872D+03
    9.360000000000D+04 9.685754776001D-08 2.737737380562D+00 2.421438694000D-08
    9.604637281295D-01 1.934375000000D+02-1.273195042370D+00-7.943902323989D-09
   -4.864488339751D-10 1.000000000000D+00 1.550000000000D+03 0.000000000000D+00
    2.000000000000D+00 0.000000000000D+00-8.847564458847D-09 5.100000000000D+01
    8.965800000000D+04 4.000000000000D+00
10 09  9 21  1 59 28.0-2.403696998954D-05-9.094947017729D-13 0.000000000000D+00
    5.400000000000D+01 3.587500000000D+01 5.182001565451D-09 1.430475105944D-01
    2.009794116020D-06 8.632307755761D-03 1.452863216400D-06 5.153666681290D+03
    9.356800000000D+04 5.587935447693D-08-1.454702461534D+00 8.195638656616D-08
    9.562796595377D-01 3.458125000000D+02 6.246464152819D-01-8.769293847716D-09
   -8.571785620706D-12 1.000000000000D+00 1.550000000000D+03 0.000000000000D+00
    2.000000000000D+00 0.000000000000D+00-2.793967723846D-09 5.400000000000D+01
    9.013800000000D+04 4.000000000000D+00
 5 09  9 21  2  0  0.0-8.539715781808D-05 1.102762325900D-11 0.000000000000D+00
    8.100000000000D+01 4.078125000000D+01 5.013780272645D-09-9.956435973523D-02
    2.196058630943D-06 2.343296888284D-03 1.545995473862D-06 5.157148334503D+03
    9.360000000000D+04 1.490116119385D-08-1.481867337608D+00-1.862645149231D-08
    9.611983543868D-01 3.464062500000D+02 8.191357577780D-01-8.572142778440D-09
    2.892977646988D-11 1.000000000000D+00 1.550000000000D+03 0.000000000000D+00
    2.000000000000D+00 0.000000000000D+00-9.313225746155D-09 8.100000000000D+01
    9.055800000000D+04 4.000000000000D+00
25 09  9 21  2  0  0.0 6.022746674716D-04 1.443822839065D-11 0.000000000000D+00
    1.430000000000D+02-1.887500000000D+01 3.876590046964D-09 1.953843847427D+00
   -9.573996067047D-07 1.123479241505D-02 1.174956560135D-05 5.153646249771D+03
    9.360000000000D+04 2.495944499969D-07 5.223725820462D-01 2.793967723846D-08
    9.711642336428D-01 1.558750000000D+02-1.213155696507D+00-7.508527046004D-09
    2.378670509746D-10 1.000000000000D+00 1.550000000000D+03 0.000000000000D+00
    2.800000000000D+00 0.000000000000D+00-7.450580596924D-09 1.430000000000D+02
    9.163800000000D+04 4.000000000000D+00
29 09  9 21  4  0  0.0 5.931733176112D-05 3.296918293927D-12 0.000000000000D+00
    5.300000000000D+01-4.162500000000D+01 4.456971365033D-09-2.451689632108D+00
   -2.171844244003D-06 3.080407972448D-03 9.376555681229D-06 5.153607515335D+03
    1.008000000000D+05 4.284083843231D-08 2.737680022470D+00 7.078051567078D-08
    9.604604877659D-01 1.942500000000D+02-1.273215151642D+00-7.927115910482D-09
   -4.400183285296D-10 1.000000000000D+00 1.550000000000D+03 0.000000000000D+00
    2.000000000000D+00 0.000000000000D+00-8.847564458847D-09 5.300000000000D+01
    9.361800000000D+04 4.000000000000D+00
 4 09  9 21  4  0  0.0-2.751154825091D-04-1.739408617141D-11 0.000000000000D+00
    5.300000000000D+01 8.425000000000D+01 4.787699426899D-09 2.998846452918D+00
    4.408881068230D-06 8.773733046837D-03 1.149810850620D-05 5.153811971664D+03
    1.008000000000D+05-6.332993507385D-08-2.521862757798D+00-1.080334186554D-07
    9.402697693472D-01 1.487812500000D+02 5.162465526097D-01-7.966760418978D-09
    2.421529437849D-10 1.000000000000D+00 1.550000000000D+03 0.000000000000D+00
    2.000000000000D+00 0.000000000000D+00-6.053596735001D-09 5.300000000000D+01
    9.361800000000D+04 4.000000000000D+00
 2 09  9 21  4  0  0.0 1.741149462759D-04 3.069544618484D-12 0.000000000000D+00
    8.500000000000D+01 7.843750000000D+01 4.881989068726D-09 1.624753464932D-01
    4.174187779427D-06 9.088434628211D-03 1.059286296368D-05 5.153719039917D+03
    1.008000000000D+05 1.043081283569D-07-2.540087997501D+00-6.519258022308D-08
    9.410929094629D-01 1.663750000000D+02 2.895385953201D+00-8.280344909602D-09
    2.253665302777D-10 1.000000000000D+00 1.550000000000D+03 0.000000000000D+00
    2.000000000000D+00 0.000000000000D+00-1.722946763039D-08 8.500000000000D+01
    9.361800000000D+04 4.000000000000D+00
13 09  9 21  4  0  0.0 3.048651851714D-04 4.547473508865D-13 0.000000000000D+00
    9.100000000000D+01-1.050312500000D+02 3.786586297947D-09 7.658601171023D-01
   -5.580484867096D-06 4.006631439552D-03 7.534399628639D-06 5.153651380539D+03
    1.008000000000D+05-2.421438694000D-08-3.697966807732D-01-4.470348358154D-08
    9.946094620249D-01 2.535312500000D+02 1.660324287308D+00-7.833540584123D-09
   -4.918061999880D-10 1.000000000000D+00 1.550000000000D+03 0.000000000000D+00
    2.000000000000D+00 0.000000000000D+00-1.117587089539D-08 9.100000000000D+01
    9.361800000000D+04 4.000000000000D+00
10 09  9 21  4  0  0.0-2.404302358627D-05-9.094947017729D-13 0.000000000000D+00
    5.500000000000D+01 4.446875000000D+01 5.162715047804D-09 1.197760749783D+00
    2.531334757805D-06 8.633978664875D-03 2.255663275719D-06 5.153670639038D+03
    1.008000000000D+05 1.490116119385D-08-1.454766012158D+00 1.825392246246D-07
    9.562796405197D-01 3.338437500000D+02 6.247893482299D-01-8.755007538349D-09
    3.821587755898D-11 1.000000000000D+00 1.550000000000D+03 0.000000000000D+00
    2.000000000000D+00 0.000000000000D+00-2.793967723846D-09 5.500000000000D+01
    9.361800000000D+04 4.000000000000D+00
 5 09  9 21  4  0  0.0-8.531799539924D-05 1.102762325900D-11 0.000000000000D+00
    8.200000000000D+01 4.815625000000D+01 5.013065957176D-09 9.481557770082D-01
    2.678483724594D-06 2.344951848499D-03 2.222135663033D-06 5.157151819229D+03
    1.008000000000D+05 8.195638656616D-08-1.481929653530D+00 9.313225746155D-08
    9.611987669297D-01 3.355625000000D+02 8.194781961790D-01-8.596429504366D-09
    1.285767843106D-10 1.000000000000D+00 1.550000000000D+03 0.000000000000D+00
    2.800000000000D+00 0.000000000000D+00-9.313225746155D-09 8.200000000000D+01
    9.361800000000D+04 4.000000000000D+00
23 09  9 21  4  0  0.0 3.883652389050D-04-3.410605131648D-13 0.000000000000D+00
    4.600000000000D+01-1.099375000000D+02 4.402683389435D-09 8.583679876150D-02
   -5.947425961494D-06 6.396029493771D-03 6.439164280891D-06 5.153773120880D+03
    1.008000000000D+05 1.005828380585D-07-4.245580786053D-01 9.313225746155D-09
    9.699306835633D-01 2.598125000000D+02 2.970580834855D+00-8.218199463852D-09
   -5.353794435599D-10 1.000000000000D+00 1.550000000000D+03 0.000000000000D+00
    2.000000000000D+00 0.000000000000D+00-2.002343535423D-08 4.600000000000D+01
    9.361800000000D+04 4.000000000000D+00
